{
  "type": "FeatureCollection",
  "features": [
    {
      "type": "Feature",
      "properties": {
        "norad_id": 26766,
        "name": "INTELSAT 10 (IS-10)",
        "group": "intelsat",
        "lat": 6.66386422000127,
        "lon": 111.11953679628249,
        "alt_km": 36156.38520719067,
        "timestamp": "2025-12-17T17:50:18.919387+00:00",
        "meta_object_name": "INTELSAT 10 (IS-10)",
        "meta_object_id": "2001-019A",
        "meta_epoch": "2025-12-16T15:38:46.684608",
        "meta_mean_motion": 0.99077112,
        "meta_eccentricity": 0.0007682,
        "meta_inclination": 8.6387,
        "meta_ra_of_asc_node": 61.1181,
        "meta_arg_of_pericenter": 227.7006,
        "meta_mean_anomaly": 153.3672,
        "meta_ephemeris_type": 0,
        "meta_classification_type": "U",
        "meta_norad_cat_id": 26766,
        "meta_element_set_no": 999,
        "meta_rev_at_epoch": 4377,
        "meta_bstar": 0,
        "meta_mean_motion_dot": -2.12e-06,
        "meta_mean_motion_ddot": 0,
        "tle_line1": "1 26766U 01019A   25350.65192922 -.00000212  00000+0  00000+0 0  9993",
        "tle_line2": "2 26766   8.6387  61.1181 0007682 227.7006 153.3672  0.99077112 43770"
      },
      "geometry": {
        "type": "Point",
        "coordinates": [
          111.11953679628249,
          6.66386422000127
        ]
      }
    },
    {
      "type": "Feature",
      "properties": {
        "norad_id": 26900,
        "name": "INTELSAT 902 (IS-902)",
        "group": "intelsat",
        "lat": -4.3584034023638765,
        "lon": -56.02740477516219,
        "alt_km": 35772.62290141065,
        "timestamp": "2025-12-17T17:50:18.919411+00:00",
        "meta_object_name": "INTELSAT 902 (IS-902)",
        "meta_object_id": "2001-039A",
        "meta_epoch": "2025-12-15T13:09:02.081664",
        "meta_mean_motion": 1.0027087,
        "meta_eccentricity": 0.00045028,
        "meta_inclination": 5.6536,
        "meta_ra_of_asc_node": 74.0372,
        "meta_arg_of_pericenter": 189.6359,
        "meta_mean_anomaly": 327.9329,
        "meta_ephemeris_type": 0,
        "meta_classification_type": "U",
        "meta_norad_cat_id": 26900,
        "meta_element_set_no": 999,
        "meta_rev_at_epoch": 8885,
        "meta_bstar": 0,
        "meta_mean_motion_dot": -2.65e-06,
        "meta_mean_motion_ddot": 0,
        "tle_line1": "1 26900U 01039A   25349.54794076 -.00000265  00000+0  00000+0 0  9997",
        "tle_line2": "2 26900   5.6536  74.0372 0004502 189.6359 327.9329  1.00270870 88858"
      },
      "geometry": {
        "type": "Point",
        "coordinates": [
          -56.02740477516219,
          -4.3584034023638765
        ]
      }
    },
    {
      "type": "Feature",
      "properties": {
        "norad_id": 27380,
        "name": "INTELSAT 904 (IS-904)",
        "group": "intelsat",
        "lat": -6.138908888956255,
        "lon": -37.41420574581636,
        "alt_km": 35780.00545748657,
        "timestamp": "2025-12-17T17:50:18.919426+00:00",
        "meta_object_name": "INTELSAT 904 (IS-904)",
        "meta_object_id": "2002-007A",
        "meta_epoch": "2025-12-17T02:54:07.486272",
        "meta_mean_motion": 1.00271932,
        "meta_eccentricity": 0.00016548,
        "meta_inclination": 6.4651,
        "meta_ra_of_asc_node": 71.3825,
        "meta_arg_of_pericenter": 243.3413,
        "meta_mean_anomaly": 143.3108,
        "meta_ephemeris_type": 0,
        "meta_classification_type": "U",
        "meta_norad_cat_id": 27380,
        "meta_element_set_no": 999,
        "meta_rev_at_epoch": 4994,
        "meta_bstar": 0,
        "meta_mean_motion_dot": -2.06e-06,
        "meta_mean_motion_ddot": 0,
        "tle_line1": "1 27380U 02007A   25351.12091998 -.00000206  00000+0  00000+0 0  9991",
        "tle_line2": "2 27380   6.4651  71.3825 0001654 243.3413 143.3108  1.00271932 49947"
      },
      "geometry": {
        "type": "Point",
        "coordinates": [
          -37.41420574581636,
          -6.138908888956255
        ]
      }
    },
    {
      "type": "Feature",
      "properties": {
        "norad_id": 27426,
        "name": "DIRECTV 5 (TEMPO 1)",
        "group": "intelsat",
        "lat": 1.0081017362901883,
        "lon": -115.91085029507725,
        "alt_km": 35774.410191765586,
        "timestamp": "2025-12-17T17:50:18.919440+00:00",
        "meta_object_name": "DIRECTV 5 (TEMPO 1)",
        "meta_object_id": "2002-023A",
        "meta_epoch": "2025-12-17T07:52:39.180864",
        "meta_mean_motion": 1.00272685,
        "meta_eccentricity": 0.00033931,
        "meta_inclination": 4.4134,
        "meta_ra_of_asc_node": 77.5998,
        "meta_arg_of_pericenter": 204.8334,
        "meta_mean_anomaly": 171.8199,
        "meta_ephemeris_type": 0,
        "meta_classification_type": "U",
        "meta_norad_cat_id": 27426,
        "meta_element_set_no": 999,
        "meta_rev_at_epoch": 8630,
        "meta_bstar": 0,
        "meta_mean_motion_dot": -3.6e-07,
        "meta_mean_motion_ddot": 0,
        "tle_line1": "1 27426U 02023A   25351.32823126 -.00000036  00000+0  00000+0 0  9999",
        "tle_line2": "2 27426   4.4134  77.5998 0003393 204.8334 171.8199  1.00272685 86300"
      },
      "geometry": {
        "type": "Point",
        "coordinates": [
          -115.91085029507725,
          1.0081017362901883
        ]
      }
    },
    {
      "type": "Feature",
      "properties": {
        "norad_id": 27438,
        "name": "INTELSAT 905 (IS-905)",
        "group": "intelsat",
        "lat": 3.5892219158458536,
        "lon": -142.8189591786496,
        "alt_km": 35778.47651858475,
        "timestamp": "2025-12-17T17:50:18.919453+00:00",
        "meta_object_name": "INTELSAT 905 (IS-905)",
        "meta_object_id": "2002-027A",
        "meta_epoch": "2025-12-14T04:33:38.635200",
        "meta_mean_motion": 1.00274201,
        "meta_eccentricity": 0.00026501,
        "meta_inclination": 6.2894,
        "meta_ra_of_asc_node": 72.0398,
        "meta_arg_of_pericenter": 202.1249,
        "meta_mean_anomaly": 100.1717,
        "meta_ephemeris_type": 0,
        "meta_classification_type": "U",
        "meta_norad_cat_id": 27438,
        "meta_element_set_no": 999,
        "meta_rev_at_epoch": 4950,
        "meta_bstar": 0,
        "meta_mean_motion_dot": 1.08e-06,
        "meta_mean_motion_ddot": 0,
        "tle_line1": "1 27438U 02027A   25348.19003050  .00000108  00000+0  00000+0 0  9992",
        "tle_line2": "2 27438   6.2894  72.0398 0002650 202.1249 100.1717  1.00274201 49509"
      },
      "geometry": {
        "type": "Point",
        "coordinates": [
          -142.8189591786496,
          3.5892219158458536
        ]
      }
    },
    {
      "type": "Feature",
      "properties": {
        "norad_id": 27445,
        "name": "GALAXY 3C (G-3C)",
        "group": "intelsat",
        "lat": 0.03752209652042363,
        "lon": -100.66127494074536,
        "alt_km": 35786.87439752751,
        "timestamp": "2025-12-17T17:50:18.919466+00:00",
        "meta_object_name": "GALAXY 3C (G-3C)",
        "meta_object_id": "2002-030A",
        "meta_epoch": "2025-12-16T14:36:52.612992",
        "meta_mean_motion": 1.00271844,
        "meta_eccentricity": 0.00011086,
        "meta_inclination": 3.2733,
        "meta_ra_of_asc_node": 80.4689,
        "meta_arg_of_pericenter": 79.4506,
        "meta_mean_anomaly": 49.9335,
        "meta_ephemeris_type": 0,
        "meta_classification_type": "U",
        "meta_norad_cat_id": 27445,
        "meta_element_set_no": 999,
        "meta_rev_at_epoch": 4466,
        "meta_bstar": 0,
        "meta_mean_motion_dot": -1.31e-06,
        "meta_mean_motion_ddot": 0,
        "tle_line1": "1 27445U 02030A   25350.60894228 -.00000131  00000+0  00000+0 0  9995",
        "tle_line2": "2 27445   3.2733  80.4689 0001108  79.4506  49.9335  1.00271844 44668"
      },
      "geometry": {
        "type": "Point",
        "coordinates": [
          -100.66127494074536,
          0.03752209652042363
        ]
      }
    },
    {
      "type": "Feature",
      "properties": {
        "norad_id": 27513,
        "name": "INTELSAT 906 (IS-906)",
        "group": "intelsat",
        "lat": -1.520450194547806,
        "lon": 58.42228454418638,
        "alt_km": 35808.46380436425,
        "timestamp": "2025-12-17T17:50:18.919479+00:00",
        "meta_object_name": "INTELSAT 906 (IS-906)",
        "meta_object_id": "2002-041A",
        "meta_epoch": "2025-12-17T05:04:17.520960",
        "meta_mean_motion": 1.00272313,
        "meta_eccentricity": 0.00062878,
        "meta_inclination": 5.3407,
        "meta_ra_of_asc_node": 75.1785,
        "meta_arg_of_pericenter": 196.2124,
        "meta_mean_anomaly": 314.8986,
        "meta_ephemeris_type": 0,
        "meta_classification_type": "U",
        "meta_norad_cat_id": 27513,
        "meta_element_set_no": 999,
        "meta_rev_at_epoch": 8520,
        "meta_bstar": 0,
        "meta_mean_motion_dot": 3.3e-07,
        "meta_mean_motion_ddot": 0,
        "tle_line1": "1 27513U 02041A   25351.21131390  .00000033  00000+0  00000+0 0  9995",
        "tle_line2": "2 27513   5.3407  75.1785 0006287 196.2124 314.8986  1.00272313 85203"
      },
      "geometry": {
        "type": "Point",
        "coordinates": [
          58.42228454418638,
          -1.520450194547806
        ]
      }
    }
  ]
}